0 FENGYUN 1C DEB
1 30092U 99025QV  13281.66132597  .00000495  00000-0  20303-3 0  7709
2 30092 098.7734 352.0115 0095856 347.3800 140.8772 14.29061723350887
0 FENGYUN 1C DEB
1 30092U 99025QV  13282.78020679  .00000499  00000-0  20458-3 0  7716
2 30092 098.7734 353.1375 0095807 344.0953 137.1177 14.29064942351049
0 FENGYUN 1C DEB
1 30092U 99025QV  13284.16680346  .00000628  00000-0  25318-3 0  7728
2 30092 098.7734 354.5329 0095744 340.0219 070.6758 14.29066627351244
0 FENGYUN 1C DEB
1 30092U 99025QV  13285.85520381  .00000588  00000-0  23801-3 0  7738
2 30092 098.7732 356.2321 0095679 335.0441 116.9402 14.29068176351488
0 FENGYUN 1C DEB
1 30092U 99025QV  13287.11414932  .00000675  00000-0  27091-3 0  7746
2 30092 098.7730 357.4992 0095643 331.3297 113.8105 14.29069753351660
0 FENGYUN 1C DEB
1 30092U 99025QV  13288.86556863  .00000821  00000-0  32580-3 0  7752
2 30092 098.7727 359.2619 0095602 326.1594 124.3185 14.29073350351910
0 FENGYUN 1C DEB
1 30092U 99025QV  13290.18846133  .00000755  00000-0  30111-3 0  7767
2 30092 098.7723 000.5934 0095584 322.2577 090.1994 14.29076086352108
0 FENGYUN 1C DEB
1 30092U 99025QV  13291.45092832  .00000772  00000-0  30725-3 0  7778
2 30092 098.7721 001.8639 0095549 318.5326 105.2223 14.29078087352288
0 FENGYUN 1C DEB
1 30092U 99025QV  13292.79276663  .00000879  00000-0  34775-3 0  7780
2 30092 098.7718 003.2141 0095529 314.5834 168.5885 14.29079898352474
0 FENGYUN 1C DEB
1 30092U 99025QV  13293.83702382  .00000892  00000-0  35246-3 0  7798
2 30092 098.7717 004.2648 0095504 311.5122 140.9915 14.29081737352626
0 FENGYUN 1C DEB
1 30092U 99025QV  13295.16148008  .00000914  00000-0  36054-3 0  7800
2 30092 098.7717 005.5974 0095493 307.5964 114.9659 14.29084387352819
